[{"OBJECT_NAME":"STARLINK-35490","OBJECT_ID":"2025-243AD","EPOCH":"2025-12-13T05:14:58.796448","MEAN_MOTION":15.30250204,"ECCENTRICITY":0.00015187,"INCLINATION":53.1607,"RA_OF_ASC_NODE":286.9737,"ARG_OF_PERICENTER":98.4759,"MEAN_ANOMALY":261.6414,"EPHEMERIS_TYPE":0,"CLASSIFICATION_TYPE":"U","NORAD_CAT_ID":66204,"ELEMENT_SET_NO":999,"REV_AT_EPOCH":741,"BSTAR":0.0023162594,"MEAN_MOTION_DOT":0.00068988,"MEAN_MOTION_DDOT":0},{"OBJECT_NAME":"STARLINK-35748","OBJECT_ID":"2025-244A","EPOCH":"2025-12-13T06:15:16.706592","MEAN_MOTION":15.39676459,"ECCENTRICITY":0.00013458,"INCLINATION":53.1605,"RA_OF_ASC_NODE":273.7272,"ARG_OF_PERICENTER":147.6456,"MEAN_ANOMALY":212.4632,"EPHEMERIS_TYPE":0,"CLASSIFICATION_TYPE":"U","NORAD_CAT_ID":66206,"ELEMENT_SET_NO":999,"REV_AT_EPOCH":839,"BSTAR":0.0026631665,"MEAN_MOTION_DOT":0.00107844,"MEAN_MOTION_DDOT":0},{"OBJECT_NAME":"STARLINK-35747","OBJECT_ID":"2025-244B","EPOCH":"2025-12-13T05:04:15.748032","MEAN_MOTION":15.30166507,"ECCENTRICITY":0.00012091,"INCLINATION":53.1596,"RA_OF_ASC_NODE":271.9431,"ARG_OF_PERICENTER":107.0666,"MEAN_ANOMALY":253.0467,"EPHEMERIS_TYPE":0,"CLASSIFICATION_TYPE":"U","NORAD_CAT_ID":66207,"ELEMENT_SET_NO":999,"REV_AT_EPOCH":841,"BSTAR":0.0012502311,"MEAN_MOTION_DOT":0.00036814,"MEAN_MOTION_DDOT":0},{"OBJECT_NAME":"STARLINK-35751","OBJECT_ID":"2025-244C","EPOCH":"2025-12-13T01:34:22.398528","MEAN_MOTION":15.39613584,"ECCENTRICITY":0.00014344,"INCLINATION":53.1606,"RA_OF_ASC_NODE":274.6424,"ARG_OF_PERICENTER":42.2902,"MEAN_ANOMALY":317.8214,"EPHEMERIS_TYPE":0,"CLASSIFICATION_TYPE":"U","NORAD_CAT_ID":66208,"ELEMENT_SET_NO":999,"REV_AT_EPOCH":836,"BSTAR":0.0016348973,"MEAN_MOTION_DOT":0.00065545,"MEAN_MOTION_DDOT":0},{"OBJECT_NAME":"STARLINK-35750","OBJECT_ID":"2025-244D","EPOCH":"2025-12-12T05:12:29.314944","MEAN_MOTION":15.39543912,"ECCENTRICITY":0.00010223,"INCLINATION":53.1619,"RA_OF_ASC_NODE":278.5867,"ARG_OF_PERICENTER":113.1698,"MEAN_ANOMALY":246.9415,"EPHEMERIS_TYPE":0,"CLASSIFICATION_TYPE":"U","NORAD_CAT_ID":66209,"ELEMENT_SET_NO":999,"REV_AT_EPOCH":823,"BSTAR":0.0016002794,"MEAN_MOTION_DOT":0.00063988,"MEAN_MOTION_DDOT":0},{"OBJECT_NAME":"STARLINK-35740","OBJECT_ID":"2025-244E","EPOCH":"2025-12-13T03:01:10.017696","MEAN_MOTION":15.3965271,"ECCENTRICITY":8.308e-5,"INCLINATION":53.1612,"RA_OF_ASC_NODE":274.3053,"ARG_OF_PERICENTER":80.5063,"MEAN_ANOMALY":279.6036,"EPHEMERIS_TYPE":0,"CLASSIFICATION_TYPE":"U","NORAD_CAT_ID":66210,"ELEMENT_SET_NO":999,"REV_AT_EPOCH":837,"BSTAR":0.0019613435,"MEAN_MOTION_DOT":0.00078954,"MEAN_MOTION_DDOT":0},{"OBJECT_NAME":"STARLINK-35723","OBJECT_ID":"2025-244F","EPOCH":"2025-12-13T04:28:26.063328","MEAN_MOTION":15.39663961,"ECCENTRICITY":0.00018001,"INCLINATION":53.1611,"RA_OF_ASC_NODE":273.9729,"ARG_OF_PERICENTER":112.5728,"MEAN_ANOMALY":247.5468,"EPHEMERIS_TYPE":0,"CLASSIFICATION_TYPE":"U","NORAD_CAT_ID":66211,"ELEMENT_SET_NO":999,"REV_AT_EPOCH":838,"BSTAR":0.0013908564,"MEAN_MOTION_DOT":0.00055723,"MEAN_MOTION_DDOT":0},{"OBJECT_NAME":"STARLINK-35710","OBJECT_ID":"2025-244G","EPOCH":"2025-12-13T04:21:44.372448","MEAN_MOTION":15.39655229,"ECCENTRICITY":0.00015094,"INCLINATION":53.1608,"RA_OF_ASC_NODE":273.9434,"ARG_OF_PERICENTER":17.1353,"MEAN_ANOMALY":342.9703,"EPHEMERIS_TYPE":0,"CLASSIFICATION_TYPE":"U","NORAD_CAT_ID":66212,"ELEMENT_SET_NO":999,"REV_AT_EPOCH":838,"BSTAR":0.0015944402,"MEAN_MOTION_DOT":0.00063988,"MEAN_MOTION_DDOT":0},{"OBJECT_NAME":"STARLINK-34204","OBJECT_ID":"2025-244H","EPOCH":"2025-12-13T07:34:53.165568","MEAN_MOTION":15.39619115,"ECCENTRICITY":0.00014642,"INCLINATION":53.1598,"RA_OF_ASC_NODE":273.3577,"ARG_OF_PERICENTER":118.2933,"MEAN_ANOMALY":241.822,"EPHEMERIS_TYPE":0,"CLASSIFICATION_TYPE":"U","NORAD_CAT_ID":66213,"ELEMENT_SET_NO":999,"REV_AT_EPOCH":840,"BSTAR":0.0015572651,"MEAN_MOTION_DOT":0.00062399,"MEAN_MOTION_DDOT":0},{"OBJECT_NAME":"STARLINK-35714","OBJECT_ID":"2025-244J","EPOCH":"2025-12-13T06:00:02.000160","MEAN_MOTION":15.39538004,"ECCENTRICITY":0.00014241,"INCLINATION":53.1596,"RA_OF_ASC_NODE":273.5197,"ARG_OF_PERICENTER":53.1468,"MEAN_ANOMALY":17.0291,"EPHEMERIS_TYPE":0,"CLASSIFICATION_TYPE":"U","NORAD_CAT_ID":66214,"ELEMENT_SET_NO":999,"REV_AT_EPOCH":589,"BSTAR":0.0027332265,"MEAN_MOTION_DOT":0.00110223,"MEAN_MOTION_DDOT":0},{"OBJECT_NAME":"STARLINK-35712","OBJECT_ID":"2025-244K","EPOCH":"2025-12-13T02:28:12.229248","MEAN_MOTION":15.39624658,"ECCENTRICITY":9.658e-5,"INCLINATION":53.1594,"RA_OF_ASC_NODE":274.1599,"ARG_OF_PERICENTER":58.7575,"MEAN_ANOMALY":301.3525,"EPHEMERIS_TYPE":0,"CLASSIFICATION_TYPE":"U","NORAD_CAT_ID":66215,"ELEMENT_SET_NO":999,"REV_AT_EPOCH":837,"BSTAR":0.0020221423,"MEAN_MOTION_DOT":0.00081364,"MEAN_MOTION_DDOT":0},{"OBJECT_NAME":"STARLINK-35709","OBJECT_ID":"2025-244L","EPOCH":"2025-12-13T04:21:15.885504","MEAN_MOTION":15.39634937,"ECCENTRICITY":0.00011613,"INCLINATION":53.1612,"RA_OF_ASC_NODE":273.9405,"ARG_OF_PERICENTER":57.3112,"MEAN_ANOMALY":302.8005,"EPHEMERIS_TYPE":0,"CLASSIFICATION_TYPE":"U","NORAD_CAT_ID":66216,"ELEMENT_SET_NO":999,"REV_AT_EPOCH":838,"BSTAR":0.0016347429,"MEAN_MOTION_DOT":0.00065585,"MEAN_MOTION_DDOT":0},{"OBJECT_NAME":"STARLINK-35700","OBJECT_ID":"2025-244M","EPOCH":"2025-12-13T05:48:31.745376","MEAN_MOTION":15.39644783,"ECCENTRICITY":0.00013517,"INCLINATION":53.1612,"RA_OF_ASC_NODE":273.6073,"ARG_OF_PERICENTER":47.2901,"MEAN_ANOMALY":312.8218,"EPHEMERIS_TYPE":0,"CLASSIFICATION_TYPE":"U","NORAD_CAT_ID":66217,"ELEMENT_SET_NO":999,"REV_AT_EPOCH":839,"BSTAR":0.0015800997,"MEAN_MOTION_DOT":0.00063382,"MEAN_MOTION_DDOT":0},{"OBJECT_NAME":"STARLINK-35722","OBJECT_ID":"2025-244N","EPOCH":"2025-12-13T05:48:02.983680","MEAN_MOTION":15.39650661,"ECCENTRICITY":8.87e-5,"INCLINATION":53.1606,"RA_OF_ASC_NODE":273.6047,"ARG_OF_PERICENTER":75.9008,"MEAN_ANOMALY":284.2095,"EPHEMERIS_TYPE":0,"CLASSIFICATION_TYPE":"U","NORAD_CAT_ID":66218,"ELEMENT_SET_NO":999,"REV_AT_EPOCH":839,"BSTAR":0.001643095,"MEAN_MOTION_DOT":0.0006596,"MEAN_MOTION_DDOT":0},{"OBJECT_NAME":"STARLINK-35737","OBJECT_ID":"2025-244P","EPOCH":"2025-12-13T04:07:53.027328","MEAN_MOTION":15.40225459,"ECCENTRICITY":0.00094103,"INCLINATION":53.1619,"RA_OF_ASC_NODE":273.8802,"ARG_OF_PERICENTER":169.2779,"MEAN_ANOMALY":190.8428,"EPHEMERIS_TYPE":0,"CLASSIFICATION_TYPE":"U","NORAD_CAT_ID":66219,"ELEMENT_SET_NO":999,"REV_AT_EPOCH":838,"BSTAR":-0.011585908,"MEAN_MOTION_DOT":-0.00447619,"MEAN_MOTION_DDOT":0},{"OBJECT_NAME":"STARLINK-35677","OBJECT_ID":"2025-244Q","EPOCH":"2025-12-13T06:00:02.000160","MEAN_MOTION":15.39622795,"ECCENTRICITY":0.00012221,"INCLINATION":53.1592,"RA_OF_ASC_NODE":273.4647,"ARG_OF_PERICENTER":53.6643,"MEAN_ANOMALY":44.1134,"EPHEMERIS_TYPE":0,"CLASSIFICATION_TYPE":"U","NORAD_CAT_ID":66220,"ELEMENT_SET_NO":999,"REV_AT_EPOCH":589,"BSTAR":0.0010358916,"MEAN_MOTION_DOT":0.00041263,"MEAN_MOTION_DDOT":0}]
