STARLINK-35490          
1 66204U 25243AD  25347.21873607  .00068988  00000+0  23163-2 0  9994
2 66204  53.1607 286.9737 0001518  98.4759 261.6414 15.30250204  7419
STARLINK-35748          
1 66206U 25244A   25347.26061003  .00107844  00000+0  26632-2 0  9990
2 66206  53.1605 273.7272 0001345 147.6456 212.4632 15.39676459  8393
STARLINK-35747          
1 66207U 25244B   25347.21129338  .00036814  00000+0  12502-2 0  9991
2 66207  53.1596 271.9431 0001209 107.0666 253.0467 15.30166507  8411
STARLINK-35751          
1 66208U 25244C   25347.06553702  .00065545  00000+0  16349-2 0  9997
2 66208  53.1606 274.6424 0001434  42.2902 317.8214 15.39613584  8363
STARLINK-35750          
1 66209U 25244D   25346.21700596  .00063988  00000+0  16003-2 0  9995
2 66209  53.1619 278.5867 0001022 113.1698 246.9415 15.39543912  8233
STARLINK-35740          
1 66210U 25244E   25347.12581039  .00078954  00000+0  19613-2 0  9996
2 66210  53.1612 274.3053 0000830  80.5063 279.6036 15.39652710  8372
STARLINK-35723          
1 66211U 25244F   25347.18641277  .00055723  00000+0  13909-2 0  9995
2 66211  53.1611 273.9729 0001800 112.5728 247.5468 15.39663961  8383
STARLINK-35710          
1 66212U 25244G   25347.18176357  .00063988  00000+0  15944-2 0  9991
2 66212  53.1608 273.9434 0001509  17.1353 342.9703 15.39655229  8383
STARLINK-34204          
1 66213U 25244H   25347.31589312  .00062399  00000+0  15573-2 0  9999
2 66213  53.1598 273.3577 0001464 118.2933 241.8220 15.39619115  8409
STARLINK-35714          
1 66214U 25244J   25347.25002315  .00110223  00000+0  27332-2 0  9992
2 66214  53.1596 273.5197 0001424  53.1468  17.0291 15.39538004  5892
STARLINK-35712          
1 66215U 25244K   25347.10291932  .00081364  00000+0  20221-2 0  9995
2 66215  53.1594 274.1599 0000965  58.7575 301.3525 15.39624658  8379
STARLINK-35709          
1 66216U 25244L   25347.18143386  .00065585  00000+0  16347-2 0  9994
2 66216  53.1612 273.9405 0001161  57.3112 302.8005 15.39634937  8386
STARLINK-35700          
1 66217U 25244M   25347.24203409  .00063382  00000+0  15801-2 0  9992
2 66217  53.1612 273.6073 0001351  47.2901 312.8218 15.39644783  8398
STARLINK-35722          
1 66218U 25244N   25347.24170120  .00065960  00000+0  16431-2 0  9990
2 66218  53.1606 273.6047 0000887  75.9008 284.2095 15.39650661  8399
STARLINK-35737          
1 66219U 25244P   25347.17214152 -.00447619  00000+0 -11586-1 0  9999
2 66219  53.1619 273.8802 0009410 169.2779 190.8428 15.40225459  8384
STARLINK-35677          
1 66220U 25244Q   25347.25002315  .00041263  00000+0  10359-2 0  9997
2 66220  53.1592 273.4647 0001222  53.6643  44.1134 15.39622795  5898
